#dP2024  1  2 18  0  0.00000000      96 __u+U IGS20 EXT  IAC
## 2295 237600.00000000   900.00000000 60311 0.7500000000000
+  118   C06C07C08C09C10C11C12C13C14C16C19C20C21C22C23C24C25
+        C26C27C28C29C30C32C33C34C35C36C37C38C39C40C41C42C43
+        C44C45C46E02E03E04E05E07E08E09E10E11E12E13E14E15E18
+        E19E21E24E25E26E27E30E31E33E34E36G01G02G03G04G05G06
+        G07G08G09G10G11G12G13G14G15G16G17G18G19G20G21G22G23
+        G24G25G26G28G29G30G31G32J02J04R01R02R03R04R05R07R08
+        R09R11R12R13R14R15R16R17R18R19R20R21R22R24R25R26  0
++        10  6 10 10  8  8  7 11  8 10  7  8  8  7  8  8  6
++         9  8  8  8  9  8  7  7  8  8  9 10  9  9  8  8  9
++         8  8  9  6  7  8  6  7  6  7  8  8  7  7  7  6  7
++         8  9  7  8  7  8  6  6  7  7  7  7  6 10  7  6  6
++         7  6  6  9  7  7  7  6  6  6  8  7  9  6  6  7  7
++         7  7  6  7  8  6  7  7  8  9  9  7  7  9  9  9  9
++         7  8  7  7  7  8  7  8  7  9  9  8  8  8  6  8  0
%c M  cc GPS ccc cccc cccc cccc cccc ccccc ccccc ccccc ccccc
%c cc cc ccc ccc cccc cccc cccc cccc ccccc ccccc ccccc ccccc
%f  0.0000000  0.000000000  0.00000000000  0.000000000000000
%f  0.0000000  0.000000000  0.00000000000  0.000000000000000
%i    0    0    0    0      0      0      0      0         0
%i    0    0    0    0      0      0      0      0         0
/* IAC                                ULTRA-RAPID PREDICTION
/* S/V CLOCKS ARE ALIGNED TO GNSS TIME                      
/* G:C1WC2W R:C1PC2P E:C1XC5X C:C2IC6I J:C1CC2S             
/* PCV:IGS20_2290 OL/AL:FES2004  NONE     YN ORB:CoN CLK:CoN
*  2024 01 03  1 15  0.00000000
PC06  -1894.150965  30559.756516  29140.573185     26.300010
PC07      0.000000      0.000000      0.000000   -575.613840
PC08 -11798.211359  40288.792110   2092.678535    139.071022
PC09   6977.417331  35604.909328  22403.070977   -301.224196
PC10  -7719.553408  29098.635967 -29340.969656    141.053273
PC11 -17109.987726 -19634.415502  10114.336466    338.500856
PC12    857.886709 -17050.224994  22120.379887    807.545408
PC13  -6929.123796  40731.391597   7829.615429    403.172259
PC14  -8843.126392 -13020.565861 -23032.924556   -115.638586
PC16  -2157.618062  29947.877014  29985.412947   -260.192911
PC19  17577.895712   6483.281762  20698.926062   -943.040851
PC20    358.742812  16844.922313  22259.664529    -29.250092
PC21  18685.638977 -17894.864174 -10421.484297   -965.223189
PC22  25701.577256  -8200.023723   7095.253284   -162.392495
PC23 -16335.919253   2737.282656  22451.989905   -795.015575
PC24  -1116.167609 -27752.296220   2846.160898    753.006553
PC25 -12954.839635 -16711.935580  18206.641405    292.788737
PC26   9875.197492 -22449.632248 -13369.396240   -229.209426
PC27  -9924.302175  12612.378421 -22844.569540    251.236222
PC28 -22543.995332   -730.964149 -16422.694560    190.401500
PC29  23463.732844  15017.025448  -1678.276334    222.998647
PC30   8819.676067  19605.651501 -17809.123457    -12.740527
PC32 -18616.537597  18043.113784  10350.543712   -549.241194
PC33 -17570.088477  -6439.526774 -20703.114533   -942.153582
PC34 -10265.557374 -19735.952070  16825.812582    338.723333
PC35  22614.403380   -137.475487  16366.587351    466.223960
PC36  12262.106022  17625.294847 -17805.414438    -67.762305
PC37 -10667.159306  21765.833021  13803.761003   -931.398566
PC38 -15395.094385  38640.528467  -6315.075383    128.049410
PC39  -7173.834448  25511.732969  32884.992805     -6.440187
PC40 -21518.688802  22985.700788 -28161.355157    -50.441808
PC41 -25638.124950   7776.852878  -7767.806059   -876.945792
PC42   1275.134774 -17418.590631 -21717.657435   -471.132463
PC43 -23037.688804 -15518.276720   2543.558327     54.858890
PC44   9727.514282 -12955.926359  22712.600035    342.063484
PC45  16211.665163  -3221.176319 -22497.899412    -60.099325
PC46   1759.561165  27554.397976  -3896.598645   -112.536314
PE02 -12104.199665  25921.929647  -7559.205007     91.851588
PE03  -6993.445832  16108.982227  23821.567929    -84.407575
PE04 -15467.039163 -15406.412316 -19985.170350   -294.667785
PE05 -25120.810214   7443.351863  13770.423397   4706.600780
PE07  28596.544895   5920.877806   4819.758221    -96.368065
PE08  14845.042064  15458.378708  20409.811803   -201.980691
PE09 -28572.257714  -5955.295733  -4964.022851   -285.634479
PE10 -17522.527892 -21339.312932 -10669.933664   -591.181485
PE11 -19163.052135 -12142.542830 -19007.517568   3279.805361
PE12 -13371.701110 -26344.470117  -1663.043492   -846.036781
PE13  19132.633137  12860.769696  18581.747251    -19.810439
PE14  23122.210989   7130.181812  -4584.393981     -0.445062
PE15  13127.842735  26509.537574   1153.589263    -78.087352
PE18 -31543.857591   -147.819961  -5590.388081    166.780780
PE19   9684.297053 -15336.015583 -23390.348918   -889.297629
PE21  21331.104951 -17716.023880 -10378.561705   -571.965104
PE24 -18373.737012  -1806.799826  23111.191123   -520.728810
PE25 -21397.961936  17411.786112  10713.241914     -1.068470
PE26  13670.399298  -8844.987271  24731.675953    328.056637
PE27  18579.195057   1228.099115 -23017.610861   -239.770797
PE30   4661.700997  19467.609912 -21812.811936   -793.149360
PE31  -4895.702171 -19253.259550  21948.038921    -12.965423
PE33    934.580392 -24126.303839  17137.110282      5.301651
PE34   -447.310571  24428.175615 -16701.891275    -86.847774
PE36 -13854.946437   8090.462151 -24864.918722   -166.464763
PG01  16224.967859   3363.156603  20499.104143    165.142734
PG02  18806.709006   9065.465280  17059.244108   -506.538744
PG03  18174.529948  -4235.079064  18708.781690     99.501255
PG04  26450.159249   1100.692261  -2898.472779    256.089413
PG05 -13026.601978  -7666.800592 -22017.901302   -156.509234
PG06  -5237.785327 -24638.821053   8326.213655    457.821626
PG07  10224.161617 -12622.162166 -20443.699926    -27.744660
PG08  25518.017238   5572.941752  -6009.261908   -160.165787
PG09  21373.386746  -8284.632759 -13553.939337     46.539385
PG10  -9299.678878  23286.029096   8435.339932    -67.803339
PG11 -11897.991297 -23600.505005  -2860.555834   -525.382157
PG12 -18698.880414   2974.196723  18314.897949   -463.952689
PG13 -19022.320702 -13502.473352 -13104.086375    612.041074
PG14  12562.042209 -22814.834100   4713.046552    288.192675
PG15 -25728.604521  -3287.615438  -6695.800631    113.305954
PG16   7709.445290  14042.300579 -21438.823221   -391.906626
PG17   9134.872750 -13479.244348  21442.123547    720.755379
PG18  -9032.296644  14033.076640 -20601.814346   -522.535906
PG19  -1604.334997 -15293.619780  21504.610672    421.206859
PG20  -4628.815199 -19539.432603 -17414.236743    393.468298
PG21  19136.933977  13502.068734  13889.317160    139.628449
PG22   7726.929038 -22607.689773  12343.197863     54.929043
PG23 -16554.081240  20210.368449  -4175.051817    127.878771
PG24 -19120.598361 -10243.163999  15191.434229   -406.326370
PG25 -19041.546073  14580.838396  10774.521623    483.869440
PG26   1318.082721  21130.296019 -15952.054226    203.836694
PG28   3850.569592  23965.514365  10762.075757    -87.461288
PG29 -22627.881766   5319.476413 -12988.449326   -609.169183
PG30   2465.975139 -21374.297978 -15276.744604   -450.083966
PG31   9430.455193  24499.975404   1890.604346   -227.060745
PG32  -4221.536242  14913.686922  21741.925085   -601.984860
PJ02 -35146.578541  23307.138300   7037.030396     -0.921889
PJ04 -26647.497050  32365.401808  11626.594028     75.766305
PR01  24332.145401  -6237.475696   4421.997317     73.625561
PR02  18472.094529 -11967.932246 -12911.849651    -22.369823
PR03   1682.407861 -11665.162557 -22583.993155     92.083780
PR04 -15453.880046  -4786.884732 -19685.678840    217.928621
PR05 -24339.263513   4447.209828  -6131.128092    124.780820
PR07   -616.103207  11437.023773  22825.935526     72.737273
PR08  15730.916984   4681.697068  19599.245543    -73.890658
PR09  -9366.450462  21243.219745  10670.327941    162.253752
PR11   6220.468866  15408.390061 -19353.349800   -225.119143
PR12  11859.265450  -4966.706504 -22016.247214     35.174539
PR13  10206.157494 -19596.790368 -12773.270779    -42.909188
PR14   1858.424271 -24604.998283   6440.410198     25.878978
PR15  -6857.271315 -14167.757818  20083.912382     83.424968
PR16 -11673.733499   4742.083398  22185.927147     22.139499
PR17  -9139.915702 -18091.051010  15526.550298     48.974074
PR18 -18505.831512 -17516.118810     71.414412    120.126187
PR19 -18735.920414  -9757.380357 -14292.317865   -260.625836
PR20  -6956.997570   7709.510443 -23283.760362   -106.170158
PR21   9379.678949  18211.657892 -15176.067342    -65.908607
PR22  18375.138350  17673.523485   1065.945292    101.300211
PR24   6522.055897  -8761.951371  23074.819179    -38.391560
PR25   8266.728675  18600.054352 -15352.265588     11.449565
PR26  15058.016246   4992.104765  19987.948525-149578.460489
EOF
